{
    "links": {
        "self": "http://www.neowsapp.com/rest/v1/neo/54051384?api_key=iIulBulltgU6a56xZRHN4H3l9WmuAYTsLGpBGhQ2"
    },
    "id": "54051384",
    "neo_reference_id": "54051384",
    "name": "(2020 QN5)",
    "designation": "2020 QN5",
    "nasa_jpl_url": "http://ssd.jpl.nasa.gov/sbdb.cgi?sstr=54051384",
    "absolute_magnitude_h": 24.863,
    "estimated_diameter": {
        "kilometers": {
            "estimated_diameter_min": 0.0283109848,
            "estimated_diameter_max": 0.0633052865
        },
        "meters": {
            "estimated_diameter_min": 28.3109848006,
            "estimated_diameter_max": 63.305286524
        },
        "miles": {
            "estimated_diameter_min": 0.0175916249,
            "estimated_diameter_max": 0.0393360692
        },
        "feet": {
            "estimated_diameter_min": 92.8838113731,
            "estimated_diameter_max": 207.6945162394
        }
    },
    "is_potentially_hazardous_asteroid": false,
    "close_approach_data": [
        {
            "close_approach_date": "2020-07-22",
            "close_approach_date_full": "2020-Jul-22 14:42",
            "epoch_date_close_approach": 1595428920000,
            "relative_velocity": {
                "kilometers_per_second": "5.8768893895",
                "kilometers_per_hour": "21156.8018021942",
                "miles_per_hour": "13146.013875369"
            },
            "miss_distance": {
                "astronomical": "0.148824926",
                "lunar": "57.892896214",
                "kilometers": "22263891.93250762",
                "miles": "13834140.949220356"
            },
            "orbiting_body": "Earth"
        }
    ],
    "orbital_data": {
        "orbit_id": "1",
        "orbit_determination_date": "2020-08-24 20:12:13",
        "first_observation_date": "2020-08-19",
        "last_observation_date": "2020-08-24",
        "data_arc_in_days": 5,
        "observations_used": 14,
        "orbit_uncertainty": "9",
        "minimum_orbit_intersection": ".142451",
        "jupiter_tisserand_invariant": "3.467",
        "epoch_osculation": "2459082.5",
        "eccentricity": ".4821659005014619",
        "semi_major_axis": "2.236868047954386",
        "inclination": "6.780598830263719",
        "ascending_node_longitude": "301.4762853610171",
        "orbital_period": "1221.965588008479",
        "perihelion_distance": "1.158326551309512",
        "perihelion_argument": "1.827516505310587",
        "aphelion_distance": "3.31540954459926",
        "perihelion_time": "2459054.201280218559",
        "mean_anomaly": "8.337009831776109",
        "mean_motion": ".2946073142589202",
        "equinox": "J2000",
        "orbit_class": {
            "orbit_class_type": "AMO",
            "orbit_class_description": "Near-Earth asteroid orbits similar to that of 1221 Amor",
            "orbit_class_range": "1.017 AU < q (perihelion) < 1.3 AU"
        }
    },
    "is_sentry_object": false
}